[{"OBJECT_NAME":"VRSS-2","OBJECT_ID":"2017-060A","EPOCH":"2026-03-10T00:16:34.589280","MEAN_MOTION":14.81020191,"ECCENTRICITY":0.00185314,"INCLINATION":97.6651,"RA_OF_ASC_NODE":111.1521,"ARG_OF_PERICENTER":66.4174,"MEAN_ANOMALY":293.8983,"EPHEMERIS_TYPE":0,"CLASSIFICATION_TYPE":"U","NORAD_CAT_ID":42954,"ELEMENT_SET_NO":999,"REV_AT_EPOCH":45377,"BSTAR":0.00022726624,"MEAN_MOTION_DOT":1.716e-5,"MEAN_MOTION_DDOT":0},{"OBJECT_NAME":"COSMOS 2251 DEB","OBJECT_ID":"1993-036ATB","EPOCH":"2026-03-09T22:48:03.293568","MEAN_MOTION":14.78950757,"ECCENTRICITY":0.00061841,"INCLINATION":74.0236,"RA_OF_ASC_NODE":287.5488,"ARG_OF_PERICENTER":315.8216,"MEAN_ANOMALY":44.2465,"EPHEMERIS_TYPE":0,"CLASSIFICATION_TYPE":"U","NORAD_CAT_ID":35829,"ELEMENT_SET_NO":999,"REV_AT_EPOCH":89063,"BSTAR":0.0017515471,"MEAN_MOTION_DOT":0.00012922,"MEAN_MOTION_DDOT":0}]
